NORAD_CAT_ID,OBJECT_NAME,OBJECT_TYPE,EPOCH,MEAN_MOTION,ECCENTRICITY,INCLINATION,RA_OF_ASC_NODE,ARG_OF_PERICENTER,MEAN_ANOMALY,BSTAR,MEAN_MOTION_DOT,MEAN_MOTION_DDOT,TLE_LINE0,TLE_LINE1,TLE_LINE2,SEMIMAJOR_AXIS,PERIOD,APOGEE,PERIGEE,DECAYED
54776.0,STARLINK-5470,PAYLOAD,2023-06-02 12:40:36,15.08838703,0.0001198,53.2181,262.9992,118.7113,241.4,-7.3983e-06,-4.06e-06,0.0,0 STARLINK-5470,1 54776U 22175U   23153.52820456 -.00000406  00000-0 -73983-5 0  9999,2 54776  53.2181 262.9992 0001198 118.7113 241.4000 15.08838703 27273,6917.884,95.438,540.578,538.921,0.0
54776.0,STARLINK-5470,PAYLOAD,2023-06-02 14:15:59,15.08840427,0.0001037,53.2183,262.7018,109.6734,250.437,-7.0883e-06,-4.01e-06,0.0,0 STARLINK-5470,1 54776U 22175U   23153.59444357 -.00000401  00000-0 -70883-5 0  9999,2 54776  53.2183 262.7018 0001037 109.6734 250.4370 15.08840427 25120,6917.879,95.438,540.461,539.027,0.0
54776.0,STARLINK-5470,PAYLOAD,2023-06-03 10:56:01,15.08833418,8.79e-05,53.2172,258.845,99.1501,260.959,-2.1755e-06,-3.22e-06,0.0,0 STARLINK-5470,1 54776U 22175U   23154.45557207 -.00000322  00000-0 -21755-5 0  9990,2 54776  53.2172 258.8450 0000879  99.1501 260.9590 15.08833418 25258,6917.901,95.438,540.374,539.157,0.0
54776.0,STARLINK-5470,PAYLOAD,2023-06-03 12:31:24,15.08834371,8.75e-05,53.217,258.5481,99.2408,260.8683,3.376e-07,-2.82e-06,0.0,0 STARLINK-5470,1 54776U 22175U   23154.52181142 -.00000282  00000-0  33760-6 0  9993,2 54776  53.2170 258.5481 0000875  99.2408 260.8683 15.08834371 27422,6917.898,95.438,540.368,539.157,0.0
54776.0,STARLINK-5470,PAYLOAD,2023-06-04 13:57:34,15.08842452,9.46e-05,53.2175,253.7893,102.1717,257.9381,0.00010086,1.318e-05,0.0,0 STARLINK-5470,1 54776U 22175U   23155.58164648  .00001318  00000-0  10086-3 0  9995,2 54776  53.2175 253.7893 0000946 102.1717 257.9381 15.08842452 27585,6917.873,95.437,540.392,539.083,0.0
54776.0,STARLINK-5470,PAYLOAD,2023-06-04 15:32:57,15.08844327,9.69e-05,53.2175,253.4918,104.3847,255.7252,0.00011784,1.588e-05,0.0,0 STARLINK-5470,1 54776U 22175U   23155.64788475  .00001588  00000-0  11784-3 0  9997,2 54776  53.2175 253.4918 0000969 104.3847 255.7252 15.08844327 25431,6917.867,95.437,540.403,539.062,0.0
54776.0,STARLINK-5470,PAYLOAD,2023-06-05 10:37:35,15.0883169,9.37e-05,53.2177,249.9222,86.2677,273.8423,8.2655e-05,1.028e-05,0.0,0 STARLINK-5470,1 54776U 22175U   23156.44277495  .00001028  00000-0  82655-4 0  9996,2 54776  53.2177 249.9222 0000937  86.2677 273.8423 15.08831690 25558,6917.906,95.438,540.419,539.123,0.0
54776.0,STARLINK-5470,PAYLOAD,2023-06-05 12:12:58,15.08834737,9.47e-05,53.2182,249.6261,80.1815,279.9284,6.119e-05,6.86e-06,0.0,0 STARLINK-5470,1 54776U 22175U   23156.50901421  .00000686  00000-0  61190-4 0  9996,2 54776  53.2182 249.6261 0000947  80.1815 279.9284 15.08834737 27720,6917.896,95.438,540.417,539.106,0.0
54776.0,STARLINK-5470,PAYLOAD,2023-06-05 15:23:44,15.08839326,9.2e-05,53.2178,249.0299,84.7601,275.3496,9.8798e-05,1.285e-05,0.0,0 STARLINK-5470,1 54776U 22175U   23156.64148990  .00001285  00000-0  98798-4 0  9995,2 54776  53.2178 249.0299 0000920  84.7601 275.3496 15.08839326 27740,6917.882,95.438,540.384,539.111,0.0
54776.0,STARLINK-5470,PAYLOAD,2023-06-06 12:03:45,15.0884541,9.61e-05,53.218,245.165,82.2885,277.8216,2.8081e-05,1.59e-06,0.0,0 STARLINK-5470,1 54776U 22175U   23157.50260862  .00000159  00000-0  28081-4 0  9991,2 54776  53.2180 245.1650 0000961  82.2885 277.8216 15.08845410 27875,6917.864,95.437,540.394,539.064,0.0
54776.0,STARLINK-5470,PAYLOAD,2023-06-06 15:14:31,15.08848871,0.0001003,53.2181,244.5704,81.9161,278.1945,7.8727e-05,9.66e-06,0.0,0 STARLINK-5470,1 54776U 22175U   23157.63508443  .00000966  00000-0  78727-4 0  9993,2 54776  53.2181 244.5704 0001003  81.9161 278.1945 15.08848871 27899,6917.853,95.437,540.412,539.024,0.0
54776.0,STARLINK-5470,PAYLOAD,2023-06-07 08:43:46,15.08837703,0.0001111,53.2179,241.3007,71.57,288.5413,5.6313e-05,6.08e-06,0.0,0 STARLINK-5470,1 54776U 22175U   23158.36373162  .00000608  00000-0  56313-4 0  9992,2 54776  53.2179 241.3007 0001111  71.5700 288.5413 15.08837703 25841,6917.887,95.438,540.521,538.984,0.0
54776.0,STARLINK-5470,PAYLOAD,2023-06-07 15:05:18,15.08841474,0.0001153,53.2176,240.1116,64.7747,295.3365,6.3943e-05,7.3e-06,0.0,0 STARLINK-5470,1 54776U 22175U   23158.62868938  .00000730  00000-0  63943-4 0  9994,2 54776  53.2176 240.1116 0001153  64.7747 295.3365 15.08841474 28044,6917.876,95.437,540.539,538.943,0.0
54776.0,STARLINK-5470,PAYLOAD,2023-06-08 11:45:19,15.0884117,0.0001126,53.217,236.2455,57.0837,303.0264,2.8908e-06,-2.42e-06,0.0,0 STARLINK-5470,1 54776U 22175U   23159.48981072 -.00000242  00000-0  28908-5 0  9996,2 54776  53.2170 236.2455 0001126  57.0837 303.0264 15.08841170 28177,6917.877,95.437,540.521,538.963,0.0
54776.0,STARLINK-5470,PAYLOAD,2023-06-09 11:36:06,15.08841653,9.96e-05,53.217,231.7832,83.4721,276.6385,3.293e-05,2.36e-06,0.0,0 STARLINK-5470,1 54776U 22175U   23160.48340779  .00000236  00000-0  32930-4 0  9992,2 54776  53.2170 231.7832 0000996  83.4721 276.6385 15.08841653 28327,6917.875,95.437,540.429,539.051,0.0
54776.0,STARLINK-5470,PAYLOAD,2023-06-09 21:08:25,15.08835237,8.73e-05,53.2168,229.9999,81.6698,278.4393,2.9763e-05,1.86e-06,0.0,0 STARLINK-5470,1 54776U 22175U   23160.88085198  .00000186  00000-0  29763-4 0  9991,2 54776  53.2168 229.9999 0000873  81.6698 278.4393 15.08835237 28380,6917.895,95.438,540.364,539.156,0.0
54776.0,STARLINK-5470,PAYLOAD,2023-06-10 08:16:08,15.08831312,9.09e-05,53.217,227.9184,82.2224,277.8871,-6.9026e-06,-3.98e-06,0.0,0 STARLINK-5470,1 54776U 22175U   23161.34453752 -.00000398  00000-0 -69026-5 0  9992,2 54776  53.2170 227.9184 0000909  82.2224 277.8871 15.08831312 28451,6917.907,95.438,540.401,539.143,0.0
54776.0,STARLINK-5470,PAYLOAD,2023-06-10 20:59:13,15.08823905,9.03e-05,53.2171,225.54,89.1936,270.9159,0.00025431,3.76e-05,0.0,0 STARLINK-5470,1 54776U 22175U   23161.87445666  .00003760  00000-0  25431-3 0  9999,2 54776  53.2171 225.5400 0000903  89.1936 270.9159 15.08823905 28538,6917.93,95.439,540.419,539.17,0.0
54776.0,STARLINK-5470,PAYLOAD,2023-06-11 20:49:59,15.08838085,8.54e-05,53.2179,221.0769,76.942,283.1668,3.3351e-05,2.43e-06,0.0,0 STARLINK-5470,1 54776U 22175U   23162.86805440  .00000243  00000-0  33351-4 0  9993,2 54776  53.2179 221.0769 0000854  76.9420 283.1668 15.08838085 28684,6917.886,95.438,540.342,539.16,0.0
54776.0,STARLINK-5470,PAYLOAD,2023-06-12 04:46:55,15.08834504,9.77e-05,53.218,219.59,83.1088,277.0016,8.525e-05,1.069e-05,0.0,0 STARLINK-5470,1 54776U 22175U   23163.19925611  .00001069  00000-0  85250-4 0  9995,2 54776  53.2180 219.5900 0000977  83.1088 277.0016 15.08834504 28738,6917.897,95.438,540.438,539.086,0.0
54776.0,STARLINK-5470,PAYLOAD,2023-06-12 07:57:42,15.08822679,9.66e-05,53.2179,218.9953,85.9646,274.1456,0.00026769,3.973e-05,0.0,0 STARLINK-5470,1 54776U 22175U   23163.33173998  .00003973  00000-0  26769-3 0  9999,2 54776  53.2179 218.9953 0000966  85.9646 274.1456 15.08822679 26593,6917.933,95.439,540.467,539.13,0.0
54776.0,STARLINK-5470,PAYLOAD,2023-06-12 20:40:47,15.08832238,0.0001034,53.2175,216.6166,90.11,270.0011,0.00013049,1.789e-05,0.0,0 STARLINK-5470,1 54776U 22175U   23163.86165806  .00001789  00000-0  13049-3 0  9996,2 54776  53.2175 216.6166 0001034  90.1100 270.0011 15.08832238 28833,6917.904,95.438,540.484,539.054,0.0
54776.0,STARLINK-5470,PAYLOAD,2023-06-12 23:51:34,15.08817715,0.0001115,53.217,216.0225,85.9868,274.1252,0.00025529,3.775e-05,0.0,0 STARLINK-5470,1 54776U 22175U   23163.99414395  .00003775  00000-0  25529-3 0  9993,2 54776  53.2170 216.0225 0001115  85.9868 274.1252 15.08817715 28858,6917.949,95.439,540.585,539.042,0.0
54776.0,STARLINK-5470,PAYLOAD,2023-06-13 20:31:34,15.08838557,9.56e-05,53.2167,212.1578,88.9864,271.1237,5.1674e-07,-2.8e-06,0.0,0 STARLINK-5470,1 54776U 22175U   23164.85525883 -.00000280  00000-0  51674-6 0  9996,2 54776  53.2167 212.1578 0000956  88.9864 271.1237 15.08838557 28984,6917.885,95.438,540.411,539.088,0.0
54776.0,STARLINK-5470,PAYLOAD,2023-06-14 20:22:21,15.08839148,0.0001052,53.2169,207.6976,80.8487,279.2624,3.8509e-05,3.25e-06,0.0,0 STARLINK-5470,1 54776U 22175U   23165.84885877  .00000325  00000-0  38509-4 0  9997,2 54776  53.2169 207.6976 0001052  80.8487 279.2624 15.08839148 29131,6917.883,95.438,540.476,539.02,0.0
54776.0,STARLINK-5470,PAYLOAD,2023-06-14 23:33:07,15.08836977,0.0001011,53.2167,207.1025,82.1564,277.9543,7.2347e-05,8.64e-06,0.0,0 STARLINK-5470,1 54776U 22175U   23165.98133892  .00000864  00000-0  72347-4 0  9991,2 54776  53.2167 207.1025 0001011  82.1564 277.9543 15.08836977 26998,6917.89,95.438,540.454,539.055,0.0
54776.0,STARLINK-5470,PAYLOAD,2023-06-15 09:05:26,15.08838448,0.0001021,53.2167,205.3188,78.9004,281.2103,6.5428e-05,7.54e-06,0.0,0 STARLINK-5470,1 54776U 22175U   23166.37877890  .00000754  00000-0  65428-4 0  9998,2 54776  53.2167 205.3188 0001021  78.9004 281.2103 15.08838448 29214,6917.885,95.438,540.456,539.044,0.0
54776.0,STARLINK-5470,PAYLOAD,2023-06-16 02:34:40,15.08841497,9.84e-05,53.2166,202.0471,82.8381,277.2723,6.2468e-05,7.07e-06,0.0,0 STARLINK-5470,1 54776U 22175U   23167.10741669  .00000707  00000-0  62468-4 0  9993,2 54776  53.2166 202.0471 0000984  82.8381 277.2723 15.08841497 27164,6917.876,95.437,540.422,539.06,0.0
54776.0,STARLINK-5470,PAYLOAD,2023-06-16 08:56:13,15.08845288,9.7e-05,53.2167,200.8575,84.0152,276.095,9.2486e-05,1.185e-05,0.0,0 STARLINK-5470,1 54776U 22175U   23167.37237304  .00001185  00000-0  92486-4 0  9992,2 54776  53.2167 200.8575 0000970  84.0152 276.0950 15.08845288 29366,6917.864,95.437,540.4,539.058,0.0
54776.0,STARLINK-5470,PAYLOAD,2023-06-17 08:47:00,15.08836676,0.0001002,53.2164,196.3966,85.2991,274.8115,-1.0577e-05,-4.56e-06,0.0,0 STARLINK-5470,1 54776U 22175U   23168.36598067 -.00000456  00000-0 -10577-4 0  9991,2 54776  53.2164 196.3966 0001002  85.2991 274.8115 15.08836676 27354,6917.891,95.438,540.449,539.062,0.0
